ATLAS 5 CENTAUR DEB     
1 43996U 14055BB  26072.73013902 -.00000025  00000+0  00000+0 0  9994
2 43996  19.5478 166.1872 4867297 125.6658 289.8296  1.81740826 49299
ATLAS 5 CENTAUR DEB     
1 44007U 14055BN  26073.30564956  .00000014  00000+0  00000+0 0  9999
2 44007  19.0775 186.7031 4909736  89.9516 323.8651  1.76256360 47968
HELLAS-SAT 4 & SGS-1    
1 44034U 19007A   26073.21967669  .00000152  00000+0  00000+0 0  9992
2 44034   0.0661 128.1090 0003274  14.8787 146.9669  1.00274741 26412
GSAT-31                 
1 44035U 19007B   26073.57799549  .00000000  00000+0  00000+0 0  9994
2 44035   0.0255 154.5905 0004015 157.5732 116.0109  1.00272129 26010
NUSANTARA SATU          
1 44048U 19009A   26073.46919825 -.00000235  00000+0  00000+0 0  9990
2 44048   0.0283 137.3920 0002033 310.4335  39.1613  1.00270979 25822
ZHONGXING-6C            
1 44067U 19012A   26073.59437556 -.00000336  00000+0  00000+0 0  9997
2 44067   0.0635  67.6056 0009505 325.5221 123.4983  1.00271754 25796
WGS 10 (USA 291)        
1 44071U 19014A   26072.15422345  .00000000  00000+0  00000+0 0  9992
2 44071   0.0250 144.3397 0000453 233.7454 268.5179  1.00270837 25650
TIANLIAN 2-01           
1 44076U 19017A   26073.58380218 -.00000107  00000+0  00000+0 0  9999
2 44076   0.2942  82.3692 0002695 234.3182 142.6899  1.00272295 25706
ATLAS 5 CENTAUR DEB     
1 44107U 14055CC  26070.84075946  .00000004  00000+0  00000+0 0  9991
2 44107  19.1935 198.8069 4761811  70.7491 333.6510  1.75842955 44828
ARABSAT-6A              
1 44186U 19021A   26073.57452881  .00000000  00000+0  00000+0 0  9992
2 44186   0.0166  14.2250 0002880 325.7769  69.4988  1.00267986 25201
BEIDOU-3 IGSO-1         
1 44204U 19023A   26073.30660372 -.00000185  00000+0  00000+0 0  9997
2 44204  58.5678  38.6256 0025602 236.0570 126.5518  1.00268202  6266
BEIDOU-2 G8             
1 44231U 19027A   26073.52582192 -.00000247  00000+0  00000+0 0  9997
2 44231   1.4168  74.2591 0011478 274.7740 156.9035  1.00273801 25138
YAMAL 601               
1 44307U 19031A   26073.43539094  .00000119  00000+0  00000+0 0  9996
2 44307   0.0039 143.8417 0002498 216.0934  17.8544  1.00273549 24969
AT&T T-16               
1 44333U 19034A   26073.04928929 -.00000116  00000+0  00000+0 0  9992
2 44333   0.0200 105.2665 0001064  57.2361 286.0465  1.00272737 24670
EUTELSAT 7C             
1 44334U 19034B   26073.36016957  .00000047  00000+0  00000+0 0  9999
2 44334   0.0713 177.5871 0003266 166.6147 324.3914  1.00272124  5881
BEIDOU-3 IGSO-2         
1 44337U 19035A   26057.68879618 -.00000176  00000+0  00000+0 0  9995
2 44337  55.2338 159.8353 0038734 206.4752 153.7223  1.00247364 24561
MERIDIAN 8              
1 44453U 19046A   26070.51722844 -.00000114  00000+0  00000+0 0  9993
2 44453  63.0422  63.2622 7044915 274.5861  15.0575  2.00621571 48383
