[{"OBJECT_NAME":"ATLAS 5 CENTAUR DEB","OBJECT_ID":"2014-055BB","EPOCH":"2026-03-13T17:31:24.011328","MEAN_MOTION":1.81740826,"ECCENTRICITY":0.48672975,"INCLINATION":19.5478,"RA_OF_ASC_NODE":166.1872,"ARG_OF_PERICENTER":125.6658,"MEAN_ANOMALY":289.8296,"EPHEMERIS_TYPE":0,"CLASSIFICATION_TYPE":"U","NORAD_CAT_ID":43996,"ELEMENT_SET_NO":999,"REV_AT_EPOCH":4929,"BSTAR":0,"MEAN_MOTION_DOT":-2.5e-7,"MEAN_MOTION_DDOT":0},{"OBJECT_NAME":"ATLAS 5 CENTAUR DEB","OBJECT_ID":"2014-055BN","EPOCH":"2026-03-14T07:20:08.121984","MEAN_MOTION":1.7625636,"ECCENTRICITY":0.49097368,"INCLINATION":19.0775,"RA_OF_ASC_NODE":186.7031,"ARG_OF_PERICENTER":89.9516,"MEAN_ANOMALY":323.8651,"EPHEMERIS_TYPE":0,"CLASSIFICATION_TYPE":"U","NORAD_CAT_ID":44007,"ELEMENT_SET_NO":999,"REV_AT_EPOCH":4796,"BSTAR":0,"MEAN_MOTION_DOT":1.4e-7,"MEAN_MOTION_DDOT":0},{"OBJECT_NAME":"HELLAS-SAT 4 & SGS-1","OBJECT_ID":"2019-007A","EPOCH":"2026-03-14T05:16:20.066016","MEAN_MOTION":1.00274741,"ECCENTRICITY":0.00032749,"INCLINATION":0.0661,"RA_OF_ASC_NODE":128.109,"ARG_OF_PERICENTER":14.8787,"MEAN_ANOMALY":146.9669,"EPHEMERIS_TYPE":0,"CLASSIFICATION_TYPE":"U","NORAD_CAT_ID":44034,"ELEMENT_SET_NO":999,"REV_AT_EPOCH":2641,"BSTAR":0,"MEAN_MOTION_DOT":1.52e-6,"MEAN_MOTION_DDOT":0},{"OBJECT_NAME":"GSAT-31","OBJECT_ID":"2019-007B","EPOCH":"2026-03-14T13:52:18.810336","MEAN_MOTION":1.00272129,"ECCENTRICITY":0.00040156,"INCLINATION":0.0255,"RA_OF_ASC_NODE":154.5905,"ARG_OF_PERICENTER":157.5732,"MEAN_ANOMALY":116.0109,"EPHEMERIS_TYPE":0,"CLASSIFICATION_TYPE":"U","NORAD_CAT_ID":44035,"ELEMENT_SET_NO":999,"REV_AT_EPOCH":2601,"BSTAR":0,"MEAN_MOTION_DOT":0,"MEAN_MOTION_DDOT":0},{"OBJECT_NAME":"NUSANTARA SATU","OBJECT_ID":"2019-009A","EPOCH":"2026-03-14T11:15:38.728800","MEAN_MOTION":1.00270979,"ECCENTRICITY":0.00020337,"INCLINATION":0.0283,"RA_OF_ASC_NODE":137.392,"ARG_OF_PERICENTER":310.4335,"MEAN_ANOMALY":39.1613,"EPHEMERIS_TYPE":0,"CLASSIFICATION_TYPE":"U","NORAD_CAT_ID":44048,"ELEMENT_SET_NO":999,"REV_AT_EPOCH":2582,"BSTAR":0,"MEAN_MOTION_DOT":-2.35e-6,"MEAN_MOTION_DDOT":0},{"OBJECT_NAME":"ZHONGXING-6C","OBJECT_ID":"2019-012A","EPOCH":"2026-03-14T14:15:54.048384","MEAN_MOTION":1.00271754,"ECCENTRICITY":0.00095059,"INCLINATION":0.0635,"RA_OF_ASC_NODE":67.6056,"ARG_OF_PERICENTER":325.5221,"MEAN_ANOMALY":123.4983,"EPHEMERIS_TYPE":0,"CLASSIFICATION_TYPE":"U","NORAD_CAT_ID":44067,"ELEMENT_SET_NO":999,"REV_AT_EPOCH":2579,"BSTAR":0,"MEAN_MOTION_DOT":-3.36e-6,"MEAN_MOTION_DDOT":0},{"OBJECT_NAME":"WGS 10 (USA 291)","OBJECT_ID":"2019-014A","EPOCH":"2026-03-13T03:42:04.906080","MEAN_MOTION":1.00270837,"ECCENTRICITY":4.537e-5,"INCLINATION":0.025,"RA_OF_ASC_NODE":144.3397,"ARG_OF_PERICENTER":233.7454,"MEAN_ANOMALY":268.5179,"EPHEMERIS_TYPE":0,"CLASSIFICATION_TYPE":"U","NORAD_CAT_ID":44071,"ELEMENT_SET_NO":999,"REV_AT_EPOCH":2565,"BSTAR":0,"MEAN_MOTION_DOT":0,"MEAN_MOTION_DDOT":0},{"OBJECT_NAME":"TIANLIAN 2-01","OBJECT_ID":"2019-017A","EPOCH":"2026-03-14T14:00:40.508352","MEAN_MOTION":1.00272295,"ECCENTRICITY":0.00026954,"INCLINATION":0.2942,"RA_OF_ASC_NODE":82.3692,"ARG_OF_PERICENTER":234.3182,"MEAN_ANOMALY":142.6899,"EPHEMERIS_TYPE":0,"CLASSIFICATION_TYPE":"U","NORAD_CAT_ID":44076,"ELEMENT_SET_NO":999,"REV_AT_EPOCH":2570,"BSTAR":0,"MEAN_MOTION_DOT":-1.07e-6,"MEAN_MOTION_DDOT":0},{"OBJECT_NAME":"ATLAS 5 CENTAUR DEB","OBJECT_ID":"2014-055CC","EPOCH":"2026-03-11T20:10:41.617344","MEAN_MOTION":1.75842955,"ECCENTRICITY":0.4761811,"INCLINATION":19.1935,"RA_OF_ASC_NODE":198.8069,"ARG_OF_PERICENTER":70.7491,"MEAN_ANOMALY":333.651,"EPHEMERIS_TYPE":0,"CLASSIFICATION_TYPE":"U","NORAD_CAT_ID":44107,"ELEMENT_SET_NO":999,"REV_AT_EPOCH":4482,"BSTAR":0,"MEAN_MOTION_DOT":4.0e-8,"MEAN_MOTION_DDOT":0},{"OBJECT_NAME":"ARABSAT-6A","OBJECT_ID":"2019-021A","EPOCH":"2026-03-14T13:47:19.289184","MEAN_MOTION":1.00267986,"ECCENTRICITY":0.00028805,"INCLINATION":0.0166,"RA_OF_ASC_NODE":14.225,"ARG_OF_PERICENTER":325.7769,"MEAN_ANOMALY":69.4988,"EPHEMERIS_TYPE":0,"CLASSIFICATION_TYPE":"U","NORAD_CAT_ID":44186,"ELEMENT_SET_NO":999,"REV_AT_EPOCH":2520,"BSTAR":0,"MEAN_MOTION_DOT":0,"MEAN_MOTION_DDOT":0},{"OBJECT_NAME":"BEIDOU-3 IGSO-1","OBJECT_ID":"2019-023A","EPOCH":"2026-03-14T07:21:30.561408","MEAN_MOTION":1.00268202,"ECCENTRICITY":0.00256024,"INCLINATION":58.5678,"RA_OF_ASC_NODE":38.6256,"ARG_OF_PERICENTER":236.057,"MEAN_ANOMALY":126.5518,"EPHEMERIS_TYPE":0,"CLASSIFICATION_TYPE":"U","NORAD_CAT_ID":44204,"ELEMENT_SET_NO":999,"REV_AT_EPOCH":626,"BSTAR":0,"MEAN_MOTION_DOT":-1.85e-6,"MEAN_MOTION_DDOT":0},{"OBJECT_NAME":"BEIDOU-2 G8","OBJECT_ID":"2019-027A","EPOCH":"2026-03-14T12:37:11.013888","MEAN_MOTION":1.00273801,"ECCENTRICITY":0.00114787,"INCLINATION":1.4168,"RA_OF_ASC_NODE":74.2591,"ARG_OF_PERICENTER":274.774,"MEAN_ANOMALY":156.9035,"EPHEMERIS_TYPE":0,"CLASSIFICATION_TYPE":"U","NORAD_CAT_ID":44231,"ELEMENT_SET_NO":999,"REV_AT_EPOCH":2513,"BSTAR":0,"MEAN_MOTION_DOT":-2.47e-6,"MEAN_MOTION_DDOT":0},{"OBJECT_NAME":"YAMAL 601","OBJECT_ID":"2019-031A","EPOCH":"2026-03-14T10:26:57.777216","MEAN_MOTION":1.00273549,"ECCENTRICITY":0.00024987,"INCLINATION":0.0039,"RA_OF_ASC_NODE":143.8417,"ARG_OF_PERICENTER":216.0934,"MEAN_ANOMALY":17.8544,"EPHEMERIS_TYPE":0,"CLASSIFICATION_TYPE":"U","NORAD_CAT_ID":44307,"ELEMENT_SET_NO":999,"REV_AT_EPOCH":2496,"BSTAR":0,"MEAN_MOTION_DOT":1.19e-6,"MEAN_MOTION_DDOT":0},{"OBJECT_NAME":"AT&T T-16","OBJECT_ID":"2019-034A","EPOCH":"2026-03-14T01:10:58.594656","MEAN_MOTION":1.00272737,"ECCENTRICITY":0.00010645,"INCLINATION":0.02,"RA_OF_ASC_NODE":105.2665,"ARG_OF_PERICENTER":57.2361,"MEAN_ANOMALY":286.0465,"EPHEMERIS_TYPE":0,"CLASSIFICATION_TYPE":"U","NORAD_CAT_ID":44333,"ELEMENT_SET_NO":999,"REV_AT_EPOCH":2467,"BSTAR":0,"MEAN_MOTION_DOT":-1.16e-6,"MEAN_MOTION_DDOT":0},{"OBJECT_NAME":"EUTELSAT 7C","OBJECT_ID":"2019-034B","EPOCH":"2026-03-14T08:38:38.650848","MEAN_MOTION":1.00272124,"ECCENTRICITY":0.00032667,"INCLINATION":0.0713,"RA_OF_ASC_NODE":177.5871,"ARG_OF_PERICENTER":166.6147,"MEAN_ANOMALY":324.3914,"EPHEMERIS_TYPE":0,"CLASSIFICATION_TYPE":"U","NORAD_CAT_ID":44334,"ELEMENT_SET_NO":999,"REV_AT_EPOCH":588,"BSTAR":0,"MEAN_MOTION_DOT":4.7e-7,"MEAN_MOTION_DDOT":0},{"OBJECT_NAME":"BEIDOU-3 IGSO-2","OBJECT_ID":"2019-035A","EPOCH":"2026-02-26T16:31:51.989952","MEAN_MOTION":1.00247364,"ECCENTRICITY":0.00387345,"INCLINATION":55.2338,"RA_OF_ASC_NODE":159.8353,"ARG_OF_PERICENTER":206.4752,"MEAN_ANOMALY":153.7223,"EPHEMERIS_TYPE":0,"CLASSIFICATION_TYPE":"U","NORAD_CAT_ID":44337,"ELEMENT_SET_NO":999,"REV_AT_EPOCH":2456,"BSTAR":0,"MEAN_MOTION_DOT":-1.76e-6,"MEAN_MOTION_DDOT":0},{"OBJECT_NAME":"MERIDIAN 8","OBJECT_ID":"2019-046A","EPOCH":"2026-03-11T12:24:48.537216","MEAN_MOTION":2.00621571,"ECCENTRICITY":0.7044915,"INCLINATION":63.0422,"RA_OF_ASC_NODE":63.2622,"ARG_OF_PERICENTER":274.5861,"MEAN_ANOMALY":15.0575,"EPHEMERIS_TYPE":0,"CLASSIFICATION_TYPE":"U","NORAD_CAT_ID":44453,"ELEMENT_SET_NO":999,"REV_AT_EPOCH":4838,"BSTAR":0,"MEAN_MOTION_DOT":-1.14e-6,"MEAN_MOTION_DDOT":0}]
